STARLINK-1179_new
1 15085C 20006AT  21326.15990251  .00003566  00000-0  23889-3 0  3263
2 15085  53.0537  88.0144 0001295  80.9496 143.9915 15.06397292    12
STARLINK-1179_old
1 25085C 20006AT  21325.10802204  .00001924  00000-0  12890-3 0  3252
2 25085  53.0539  92.7360 0001343  80.6702 196.7427 15.06391256    15
